NORAD_CAT_ID,OBJECT_NAME,OBJECT_TYPE,EPOCH,MEAN_MOTION,ECCENTRICITY,INCLINATION,RA_OF_ASC_NODE,ARG_OF_PERICENTER,MEAN_ANOMALY,BSTAR,MEAN_MOTION_DOT,MEAN_MOTION_DDOT,TLE_LINE0,TLE_LINE1,TLE_LINE2,SEMIMAJOR_AXIS,PERIOD,APOGEE,PERIGEE,DECAYED
53613.0,STARLINK-4655,PAYLOAD,2023-01-17 14:46:29,15.088287300000005,0.0001450999999999,53.2209,343.6836,72.5659,287.5491,-4.1261e-05,-9.44e-06,0.0,0 STARLINK-4655,1 53613U 22104AB  23017.61561652 -.00000944  00000-0 -41261-4 0  9999,2 53613  53.2209 343.6836 0001451  72.5659 287.5491 15.08828730 22461,6917.915,95.438,540.784,538.776,0.0
53613.0,STARLINK-4655,PAYLOAD,2023-01-18 08:15:42,15.08856319,0.0001443,53.2215,340.4144,73.7315,286.3836,-2.6369e-05,-7.08e-06,0.0,0 STARLINK-4655,1 53613U 22104AB  23018.34423921 -.00000708  00000-0 -26369-4 0  9996,2 53613  53.2215 340.4144 0001443  73.7315 286.3836 15.08856319 22002,6917.831,95.437,540.694,538.697,0.0
53613.0,STARLINK-4655,PAYLOAD,2023-01-18 20:58:47,15.08836438,0.0001320999999999,53.2203,338.0381,70.3499,289.7636,0.00025113,3.711e-05,0.0,0 STARLINK-4655,1 53613U 22104AB  23018.87416227  .00003711  00000-0  25113-3 0  9995,2 53613  53.2203 338.0381 0001321  70.3499 289.7636 15.08836438 22089,6917.891,95.438,540.67,538.842,0.0
53613.0,STARLINK-4655,PAYLOAD,2023-01-19 03:20:19,15.08852697,9.84e-05,53.2205,336.846,66.8036,293.306,0.00032278,4.855e-05,0.0,0 STARLINK-4655,1 53613U 22104AB  23019.13910881  .00004855  00000-0  32278-3 0  9990,2 53613  53.2205 336.8460 0000984  66.8036 293.3060 15.08852697 22128,6917.842,95.437,540.387,539.026,0.0
53613.0,STARLINK-4655,PAYLOAD,2023-01-19 06:31:04,15.08856832,0.0001085999999999,53.2202,336.2502,68.8712,291.2396,0.00036197,5.479999999999999e-05,0.0,0 STARLINK-4655,1 53613U 22104AB  23019.27158426  .00005480  00000-0  36197-3 0  9993,2 53613  53.2202 336.2502 0001086  68.8712 291.2396 15.08856832 22712,6917.829000000001,95.436,540.445,538.943,0.0
53613.0,STARLINK-4655,PAYLOAD,2023-01-20 03:11:08,15.08831184,0.0001754,53.2212,332.3857,69.2669,290.8511,-0.00010641,-1.981e-05,0.0,0 STARLINK-4655,1 53613U 22104AB  23020.13274052 -.00001981  00000-0 -10641-3 0  9994,2 53613  53.2212 332.3857 0001754  69.2669 290.8511 15.08831184 22279,6917.906999999999,95.438,540.986,538.559,0.0
53613.0,STARLINK-4655,PAYLOAD,2023-01-21 03:01:53,15.08864444,0.0001151,53.2204,327.9238,70.7306,289.381,-1.8878e-05,-5.89e-06,0.0,0 STARLINK-4655,1 53613U 22104AB  23021.12631263 -.00000589  00000-0 -18878-4 0  9999,2 53613  53.2204 327.9238 0001151  70.7306 289.3810 15.08864444 22426,6917.806,95.436,540.467,538.874,0.0
53613.0,STARLINK-4655,PAYLOAD,2023-01-22 02:52:42,15.08834475,8.57e-05,53.2207,323.4653,52.8082,307.2988,2.1093000000000003e-05,4.8e-07,0.0,0 STARLINK-4655,1 53613U 22104AB  23022.11993335  .00000048  00000-0  21093-4 0  9991,2 53613  53.2207 323.4653 0000857  52.8082 307.2988 15.08834475 22578,6917.897,95.438,540.355,539.169,0.0
53613.0,STARLINK-4655,PAYLOAD,2023-01-23 04:18:52,15.08845069,0.0001196,53.2214,318.708,93.8733,266.2396,-4.4679e-05,-9.99e-06,0.0,0 STARLINK-4655,1 53613U 22104AB  23023.17977235 -.00000999  00000-0 -44679-4 0  9991,2 53613  53.2214 318.7080 0001196  93.8733 266.2396 15.08845069 22738,6917.865,95.437,540.557,538.903,0.0
53613.0,STARLINK-4655,PAYLOAD,2023-01-24 05:45:02,15.0884321,0.0001415,53.2198,313.9474,87.6058,272.5096,0.00018157,2.603e-05,0.0,0 STARLINK-4655,1 53613U 22104AB  23024.23960795  .00002603  00000-0  18157-3 0  9995,2 53613  53.2198 313.9474 0001415  87.6058 272.5096 15.08843210 22898,6917.871,95.437,540.714,538.757,0.0
53613.0,STARLINK-4655,PAYLOAD,2023-01-25 02:25:03,15.08836542,0.0001238,53.2197,310.0812,97.7243,262.3889,5.0293e-05,5.13e-06,0.0,0 STARLINK-4655,1 53613U 22104AB  23025.10073948  .00000513  00000-0  50293-4 0  9993,2 53613  53.2197 310.0812 0001238  97.7243 262.3889 15.08836542 23025,6917.891,95.438,540.612,538.9,0.0
53613.0,STARLINK-4655,PAYLOAD,2023-01-25 11:57:23,15.08834956,0.0001379,53.2195,308.2993,79.0453,281.0695,-3.5781e-05,-8.57e-06,0.0,0 STARLINK-4655,1 53613U 22104AB  23025.49818452 -.00000857  00000-0 -35781-4 0  9990,2 53613  53.2195 308.2993 0001379  79.0453 281.0695 15.08834956 23653,6917.896,95.438,540.715,538.807,0.0
53613.0,STARLINK-4655,PAYLOAD,2023-01-26 02:15:50,15.08853495,0.0001308,53.2201,305.6208,77.0266,283.0872,8.8381e-05,1.119e-05,0.0,0 STARLINK-4655,1 53613U 22104AB  23026.09433054  .00001119  00000-0  88381-4 0  9992,2 53613  53.2201 305.6208 0001308  77.0266 283.0872 15.08853495 23178,6917.839,95.437,540.609,538.799,0.0
53613.0,STARLINK-4655,PAYLOAD,2023-01-26 21:20:28,15.08844895,0.0001328,53.2189,302.0547,74.2651,285.8488,1.5639e-05,-3.9e-07,0.0,0 STARLINK-4655,1 53613U 22104AB  23026.88921761 -.00000039  00000-0  15639-4 0  9993,2 53613  53.2189 302.0547 0001328  74.2651 285.8488 15.08844895 23299,6917.865,95.437,540.649,538.812,0.0
53613.0,STARLINK-4655,PAYLOAD,2023-01-27 03:41:59,15.08857054,0.0001255,53.2188,300.8641,82.1681,277.9453,0.00011481,1.541e-05,0.0,0 STARLINK-4655,1 53613U 22104AB  23027.15416461  .00001541  00000-0  11481-3 0  9998,2 53613  53.2188 300.8641 0001255  82.1681 277.9453 15.08857054 23339,6917.828,95.436,540.561,538.825,0.0
53613.0,STARLINK-4655,PAYLOAD,2023-01-27 21:11:15,15.08834098,0.0001139999999999,53.2175,297.5966,74.9796,285.1322,-7.743999999999999e-07,-3e-06,0.0,0 STARLINK-4655,1 53613U 22104AB  23027.88282261 -.00000300  00000-0 -77440-6 0  9991,2 53613  53.2175 297.5966 0001140  74.9796 285.1322 15.08834098 24011,6917.898,95.438,540.552,538.975,0.0
53613.0,STARLINK-4655,PAYLOAD,2023-01-28 03:32:47,15.08844569,0.0001147,53.2189,296.4038,84.838,275.2743,-7.870800000000001e-06,-4.13e-06,0.0,0 STARLINK-4655,1 53613U 22104AB  23028.14777581 -.00000413  00000-0 -78708-5 0  9997,2 53613  53.2189 296.4038 0001147  84.8380 275.2743 15.08844569 23481,6917.866,95.437,540.525,538.938,0.0
53613.0,STARLINK-4655,PAYLOAD,2023-01-28 17:51:16,15.08839995,0.000106,53.2185,293.7282,87.8543,272.257,-9.2594e-05,-1.761e-05,0.0,0 STARLINK-4655,1 53613U 22104AB  23028.74394240 -.00001761  00000-0 -92594-4 0  9995,2 53613  53.2185 293.7282 0001060  87.8543 272.2570 15.08839995 23578,6917.88,95.438,540.479,539.012,0.0
53613.0,STARLINK-4655,PAYLOAD,2023-01-28 21:02:02,15.0884304,0.0001269,53.218,293.1331,92.7783,267.3354,-7.8923e-05,-1.544e-05,0.0,0 STARLINK-4655,1 53613U 22104AB  23028.87641985 -.00001544  00000-0 -78923-4 0  9999,2 53613  53.2180 293.1331 0001269  92.7783 267.3354 15.08843040 24161,6917.871,95.437,540.614,538.858,0.0
53613.0,STARLINK-4655,PAYLOAD,2023-01-29 01:48:11,15.08845656,0.0001215,53.218,292.2426,79.6653,280.4476,-7.188e-05,-1.432e-05,0.0,0 STARLINK-4655,1 53613U 22104AB  23029.07513728 -.00001432  00000-0 -71880-4 0  9996,2 53613  53.2180 292.2426 0001215  79.6653 280.4476 15.08845656 23623,6917.863,95.437,540.569,538.888,0.0
53613.0,STARLINK-4655,PAYLOAD,2023-01-29 20:52:49,15.08836535,0.0001075,53.2177,288.6748,82.1749,277.9365,2.2239e-05,6.6e-07,0.0,0 STARLINK-4655,1 53613U 22104AB  23029.87002104  .00000066  00000-0  22239-4 0  9999,2 53613  53.2177 288.6748 0001075  82.1749 277.9365 15.08836535 24315,6917.891,95.438,540.5,539.012,0.0
53613.0,STARLINK-4655,PAYLOAD,2023-01-30 00:03:35,15.08839142,0.0001055,53.218,288.0794,83.3566,276.7546,4.97e-05,5.03e-06,0.0,0 STARLINK-4655,1 53613U 22104AB  23030.00249854  .00000503  00000-0  49700-4 0  9999,2 53613  53.2180 288.0794 0001055  83.3566 276.7546 15.08839142 24339,6917.883,95.438,540.478,539.018,0.0
53613.0,STARLINK-4655,PAYLOAD,2023-01-30 22:19:00,15.08834813,0.0001071,53.2175,283.918,85.1692,274.9423,7.6385e-06,-1.66e-06,0.0,0 STARLINK-4655,1 53613U 22104AB  23030.92986569 -.00000166  00000-0  76385-5 0  9997,2 53613  53.2175 283.9180 0001071  85.1692 274.9423 15.08834813 24473,6917.896,95.438,540.502,539.02,0.0
53613.0,STARLINK-4655,PAYLOAD,2023-01-30 23:54:23,15.08834344,0.0001074,53.2176,283.6202,84.4051,275.7064,3.6191e-07,-2.82e-06,0.0,0 STARLINK-4655,1 53613U 22104AB  23030.99610642 -.00000282  00000-0  36191-6 0  9991,2 53613  53.2176 283.6202 0001074  84.4051 275.7064 15.08834344 23917,6917.898,95.438,540.506,539.02,0.0
53613.0,STARLINK-4655,PAYLOAD,2023-01-31 18:59:00,15.08844257,0.0001372,53.2173,280.0513,113.1891,246.9245,-1.0729e-06,-3.05e-06,0.0,0 STARLINK-4655,1 53613U 22104AB  23031.79098097 -.00000305  00000-0 -10729-5 0  9999,2 53613  53.2173 280.0513 0001372 113.1891 246.9245 15.08844257 24605,6917.867,95.437,540.682,538.783,0.0
53613.0,STARLINK-4655,PAYLOAD,2023-02-01 01:20:32,15.08852793,0.0001182,53.2172,278.8616,96.5663,263.5464,6.066e-05,6.78e-06,0.0,0 STARLINK-4655,1 53613U 22104AB  23032.05593279  .00000678  00000-0  60660-4 0  9990,2 53613  53.2172 278.8616 0001182  96.5663 263.5464 15.08852793 24076,6917.841,95.437,540.524,538.889,0.0
53613.0,STARLINK-4655,PAYLOAD,2023-02-02 01:11:20,15.08839082,0.0001239,53.2168,274.4012,87.5698,272.5436,1.9297e-05,1.9e-07,0.0,0 STARLINK-4655,1 53613U 22104AB  23033.04954379  .00000019  00000-0  19297-4 0  9991,2 53613  53.2168 274.4012 0001239  87.5698 272.5436 15.08839082 24226,6917.883,95.438,540.605,538.891,0.0
53613.0,STARLINK-4655,PAYLOAD,2023-02-02 12:19:02,15.08841515,0.0001255,53.2164,272.3195,93.0989,267.0146,-2.1229e-05,-6.26e-06,0.0,0 STARLINK-4655,1 53613U 22104AB  23033.51322423 -.00000626  00000-0 -21229-4 0  9996,2 53613  53.2164 272.3195 0001255  93.0989 267.0146 15.08841515 24865,6917.876,95.437,540.609,538.873,0.0
53613.0,STARLINK-4655,PAYLOAD,2023-02-03 01:02:06,15.08847941,0.0001302,53.2163,269.9399,95.9381,264.1759,4.7237e-05,4.64e-06,0.0,0 STARLINK-4655,1 53613U 22104AB  23034.04313622  .00000464  00000-0  47237-4 0  9991,2 53613  53.2163 269.9399 0001302  95.9381 264.1759 15.08847941 24375,6917.856,95.437,540.622,538.82,0.0
